GLOBALSTAR M067 [+]     
1 32263U 07048A   24048.19869958 -.00000080  00000+0  13146-3 0  9994
2 32263  51.9751  17.9335 0001090  35.7884 337.4731 12.40638088749401
GLOBALSTAR M070 [+]     
1 32264U 07048B   24048.51819104 -.00000072  00000+0  17751-3 0  9996
2 32264  51.9740 168.0078 0001205 111.3425 329.2132 12.62286738753316
GLOBALSTAR M066 [+]     
1 32265U 07048C   24048.33301192 -.00000082  00000+0  12208-3 0  9993
2 32265  51.9694  30.5806 0000498 302.3595 204.6612 12.62260138755519
GLOBALSTAR M068 [-]     
1 32266U 07048D   24047.84740955 -.00000018  00000+0  47773-3 0  9997
2 32266  51.9914 344.7280 0001007 118.5719 284.9047 12.62780078756113
GLOBALSTAR M079 [+]     
1 37188U 10054A   24047.76860069 -.00000079  00000+0  13934-3 0  9995
2 37188  52.0024 180.5216 0000699  96.2326  51.4535 12.62266622615029
GLOBALSTAR M074 [+]     
1 37189U 10054B   24047.79875983 -.00000083  00000+0  11759-3 0  9998
2 37189  52.0000 179.8282 0000941 105.4842  58.9340 12.62265336615638
GLOBALSTAR M076 [+]     
1 37190U 10054C   24048.51898429 -.00000094  00000+0  56257-4 0  9996
2 37190  52.0015 177.7646 0001031  75.0990   2.4887 12.62274761615805
GLOBALSTAR M077 [+]     
1 37191U 10054D   24048.49161037 -.00000087  00000+0  95860-4 0  9997
2 37191  52.0068 134.5645 0000803 113.8756 259.4690 12.62269679616541
